ORBCOMM FM35            
1 25985U 99065F   26061.99715977  .00001163  00000+0  42873-3 0  9994
2 25985  45.0401 310.7845 0003436 267.2899  92.7557 14.37854906372028
ORBCOMM FM34            
1 25986U 99065G   26062.17602791  .00001136  00000+0  42059-3 0  9991
2 25986  45.0397 310.4443 0002925 210.1900 149.8780 14.37769967372165
ORBCOMM FM38            
1 33060U 08031A   26062.45783405  .00002615  00000+0  34718-3 0  9995
2 33060  48.4387 158.4250 0003831  78.7271 281.4076 14.82699136953206
ORBCOMM FM41            
1 33061U 08031B   26062.48894487  .00002492  00000+0  33565-3 0  9994
2 33061  48.4424 166.9910 0003150  58.5608  41.9268 14.82234519952683
ORBCOMM FM29            
1 33062U 08031C   26062.44703322  .00002738  00000+0  36464-3 0  9992
2 33062  48.4374 174.6265 0004766  59.6763  24.5088 14.82407446952593
ORBCOMM FM39            
1 33063U 08031D   26062.45911443  .00002483  00000+0  34609-3 0  9995
2 33063  48.4384 201.8346 0005928  26.9364 333.1858 14.80789702952201
ORBCOMM FM37            
1 33064U 08031E   26062.47682498  .00002446  00000+0  33978-3 0  9990
2 33064  48.4380 189.8706 0004379  47.8407  35.6501 14.80983968952469
ORBCOMM FM40            
1 33065U 08031F   26062.43693034  .00003164  00000+0  40546-3 0  9992
2 33065  48.4399 169.4314 0005207  66.8805  18.4410 14.83617889952639
VESSELSAT 1             
1 37840U 11058C   26062.07155260  .00000389  00000+0  67500-4 0  9990
2 37840  19.9630 327.2998 0013723 154.1814 205.9277 14.11418703742928
ORBCOMM FM109           
1 40086U 14040A   26062.48612580  .00000747  00000+0  19479-3 0  9997
2 40086  47.0020 231.1854 0001153 108.1548 251.9464 14.58710652618919
ORBCOMM FM107           
1 40087U 14040B   26062.43261403  .00000978  00000+0  24334-3 0  9999
2 40087  47.0036 232.2924 0000693 354.1328   5.9550 14.58794506618984
ORBCOMM FM106           
1 40088U 14040C   26062.28526299  .00001465  00000+0  27097-3 0  9991
2 40088  47.0612  34.0708 0016342 194.6073 165.4348 14.70283276621594
ORBCOMM FM111           
1 40089U 14040D   26062.46101545  .00004000  00000+0  44814-3 0  9999
2 40089  46.9991 207.2941 0028361 353.6169   6.4364 14.88296615628828
ORBCOMM FM104           
1 40090U 14040E   26062.02257832  .00000625  00000+0  17452-3 0  9991
2 40090  47.0044 270.9856 0016497 307.1942  52.7437 14.57154629618360
ORBCOMM FM103           
1 40091U 14040F   26062.41997009  .00000883  00000+0  22364-3 0  9996
2 40091  47.0039 233.0687 0001251  11.3791 348.7123 14.58697162601946
ORBCOMM FM114           
1 41179U 15081A   26062.43557189  .00000756  00000+0  19665-3 0  9992
2 41179  47.0043 141.9355 0001264  73.7314 286.3711 14.58717746542311
ORBCOMM FM119           
1 41180U 15081B   26062.16063690  .00000899  00000+0  22735-3 0  9993
2 41180  47.0007  52.5931 0000875 216.6176 143.4650 14.58660169543526
