[{"OBJECT_NAME":"ORBCOMM FM35","OBJECT_ID":"1999-065F","EPOCH":"2026-03-02T23:55:54.604128","MEAN_MOTION":14.37854906,"ECCENTRICITY":0.0003436,"INCLINATION":45.0401,"RA_OF_ASC_NODE":310.7845,"ARG_OF_PERICENTER":267.2899,"MEAN_ANOMALY":92.7557,"EPHEMERIS_TYPE":0,"CLASSIFICATION_TYPE":"U","NORAD_CAT_ID":25985,"ELEMENT_SET_NO":999,"REV_AT_EPOCH":37202,"BSTAR":0.00042873,"MEAN_MOTION_DOT":1.163e-5,"MEAN_MOTION_DDOT":0},{"OBJECT_NAME":"ORBCOMM FM34","OBJECT_ID":"1999-065G","EPOCH":"2026-03-03T04:13:28.811424","MEAN_MOTION":14.37769967,"ECCENTRICITY":0.0002925,"INCLINATION":45.0397,"RA_OF_ASC_NODE":310.4443,"ARG_OF_PERICENTER":210.19,"MEAN_ANOMALY":149.878,"EPHEMERIS_TYPE":0,"CLASSIFICATION_TYPE":"U","NORAD_CAT_ID":25986,"ELEMENT_SET_NO":999,"REV_AT_EPOCH":37216,"BSTAR":0.00042059,"MEAN_MOTION_DOT":1.136e-5,"MEAN_MOTION_DDOT":0},{"OBJECT_NAME":"ORBCOMM FM38","OBJECT_ID":"2008-031A","EPOCH":"2026-03-03T10:59:16.861920","MEAN_MOTION":14.82699136,"ECCENTRICITY":0.0003831,"INCLINATION":48.4387,"RA_OF_ASC_NODE":158.425,"ARG_OF_PERICENTER":78.7271,"MEAN_ANOMALY":281.4076,"EPHEMERIS_TYPE":0,"CLASSIFICATION_TYPE":"U","NORAD_CAT_ID":33060,"ELEMENT_SET_NO":999,"REV_AT_EPOCH":95320,"BSTAR":0.00034718,"MEAN_MOTION_DOT":2.615e-5,"MEAN_MOTION_DDOT":0},{"OBJECT_NAME":"ORBCOMM FM41","OBJECT_ID":"2008-031B","EPOCH":"2026-03-03T11:44:04.836768","MEAN_MOTION":14.82234519,"ECCENTRICITY":0.000315,"INCLINATION":48.4424,"RA_OF_ASC_NODE":166.991,"ARG_OF_PERICENTER":58.5608,"MEAN_ANOMALY":41.9268,"EPHEMERIS_TYPE":0,"CLASSIFICATION_TYPE":"U","NORAD_CAT_ID":33061,"ELEMENT_SET_NO":999,"REV_AT_EPOCH":95268,"BSTAR":0.00033565,"MEAN_MOTION_DOT":2.492e-5,"MEAN_MOTION_DDOT":0},{"OBJECT_NAME":"ORBCOMM FM29","OBJECT_ID":"2008-031C","EPOCH":"2026-03-03T10:43:43.670208","MEAN_MOTION":14.82407446,"ECCENTRICITY":0.0004766,"INCLINATION":48.4374,"RA_OF_ASC_NODE":174.6265,"ARG_OF_PERICENTER":59.6763,"MEAN_ANOMALY":24.5088,"EPHEMERIS_TYPE":0,"CLASSIFICATION_TYPE":"U","NORAD_CAT_ID":33062,"ELEMENT_SET_NO":999,"REV_AT_EPOCH":95259,"BSTAR":0.00036464,"MEAN_MOTION_DOT":2.738e-5,"MEAN_MOTION_DDOT":0},{"OBJECT_NAME":"ORBCOMM FM39","OBJECT_ID":"2008-031D","EPOCH":"2026-03-03T11:01:07.486752","MEAN_MOTION":14.80789702,"ECCENTRICITY":0.0005928,"INCLINATION":48.4384,"RA_OF_ASC_NODE":201.8346,"ARG_OF_PERICENTER":26.9364,"MEAN_ANOMALY":333.1858,"EPHEMERIS_TYPE":0,"CLASSIFICATION_TYPE":"U","NORAD_CAT_ID":33063,"ELEMENT_SET_NO":999,"REV_AT_EPOCH":95220,"BSTAR":0.00034609,"MEAN_MOTION_DOT":2.483e-5,"MEAN_MOTION_DDOT":0},{"OBJECT_NAME":"ORBCOMM FM37","OBJECT_ID":"2008-031E","EPOCH":"2026-03-03T11:26:37.678272","MEAN_MOTION":14.80983968,"ECCENTRICITY":0.0004379,"INCLINATION":48.438,"RA_OF_ASC_NODE":189.8706,"ARG_OF_PERICENTER":47.8407,"MEAN_ANOMALY":35.6501,"EPHEMERIS_TYPE":0,"CLASSIFICATION_TYPE":"U","NORAD_CAT_ID":33064,"ELEMENT_SET_NO":999,"REV_AT_EPOCH":95246,"BSTAR":0.00033978,"MEAN_MOTION_DOT":2.446e-5,"MEAN_MOTION_DDOT":0},{"OBJECT_NAME":"ORBCOMM FM40","OBJECT_ID":"2008-031F","EPOCH":"2026-03-03T10:29:10.781376","MEAN_MOTION":14.83617889,"ECCENTRICITY":0.0005207,"INCLINATION":48.4399,"RA_OF_ASC_NODE":169.4314,"ARG_OF_PERICENTER":66.8805,"MEAN_ANOMALY":18.441,"EPHEMERIS_TYPE":0,"CLASSIFICATION_TYPE":"U","NORAD_CAT_ID":33065,"ELEMENT_SET_NO":999,"REV_AT_EPOCH":95263,"BSTAR":0.00040546,"MEAN_MOTION_DOT":3.164e-5,"MEAN_MOTION_DDOT":0},{"OBJECT_NAME":"VESSELSAT 1","OBJECT_ID":"2011-058C","EPOCH":"2026-03-03T01:43:02.144640","MEAN_MOTION":14.11418703,"ECCENTRICITY":0.0013723,"INCLINATION":19.963,"RA_OF_ASC_NODE":327.2998,"ARG_OF_PERICENTER":154.1814,"MEAN_ANOMALY":205.9277,"EPHEMERIS_TYPE":0,"CLASSIFICATION_TYPE":"U","NORAD_CAT_ID":37840,"ELEMENT_SET_NO":999,"REV_AT_EPOCH":74292,"BSTAR":6.75e-5,"MEAN_MOTION_DOT":3.89e-6,"MEAN_MOTION_DDOT":0},{"OBJECT_NAME":"ORBCOMM FM109","OBJECT_ID":"2014-040A","EPOCH":"2026-03-03T11:40:01.269120","MEAN_MOTION":14.58710652,"ECCENTRICITY":0.0001153,"INCLINATION":47.002,"RA_OF_ASC_NODE":231.1854,"ARG_OF_PERICENTER":108.1548,"MEAN_ANOMALY":251.9464,"EPHEMERIS_TYPE":0,"CLASSIFICATION_TYPE":"U","NORAD_CAT_ID":40086,"ELEMENT_SET_NO":999,"REV_AT_EPOCH":61891,"BSTAR":0.00019479,"MEAN_MOTION_DOT":7.47e-6,"MEAN_MOTION_DDOT":0},{"OBJECT_NAME":"ORBCOMM FM107","OBJECT_ID":"2014-040B","EPOCH":"2026-03-03T10:22:57.852192","MEAN_MOTION":14.58794506,"ECCENTRICITY":6.93e-5,"INCLINATION":47.0036,"RA_OF_ASC_NODE":232.2924,"ARG_OF_PERICENTER":354.1328,"MEAN_ANOMALY":5.955,"EPHEMERIS_TYPE":0,"CLASSIFICATION_TYPE":"U","NORAD_CAT_ID":40087,"ELEMENT_SET_NO":999,"REV_AT_EPOCH":61898,"BSTAR":0.00024334,"MEAN_MOTION_DOT":9.78e-6,"MEAN_MOTION_DDOT":0},{"OBJECT_NAME":"ORBCOMM FM106","OBJECT_ID":"2014-040C","EPOCH":"2026-03-03T06:50:46.722336","MEAN_MOTION":14.70283276,"ECCENTRICITY":0.0016342,"INCLINATION":47.0612,"RA_OF_ASC_NODE":34.0708,"ARG_OF_PERICENTER":194.6073,"MEAN_ANOMALY":165.4348,"EPHEMERIS_TYPE":0,"CLASSIFICATION_TYPE":"U","NORAD_CAT_ID":40088,"ELEMENT_SET_NO":999,"REV_AT_EPOCH":62159,"BSTAR":0.00027097,"MEAN_MOTION_DOT":1.465e-5,"MEAN_MOTION_DDOT":0},{"OBJECT_NAME":"ORBCOMM FM111","OBJECT_ID":"2014-040D","EPOCH":"2026-03-03T11:03:51.734880","MEAN_MOTION":14.88296615,"ECCENTRICITY":0.0028361,"INCLINATION":46.9991,"RA_OF_ASC_NODE":207.2941,"ARG_OF_PERICENTER":353.6169,"MEAN_ANOMALY":6.4364,"EPHEMERIS_TYPE":0,"CLASSIFICATION_TYPE":"U","NORAD_CAT_ID":40089,"ELEMENT_SET_NO":999,"REV_AT_EPOCH":62882,"BSTAR":0.00044814,"MEAN_MOTION_DOT":4.0e-5,"MEAN_MOTION_DDOT":0},{"OBJECT_NAME":"ORBCOMM FM104","OBJECT_ID":"2014-040E","EPOCH":"2026-03-03T00:32:30.766848","MEAN_MOTION":14.57154629,"ECCENTRICITY":0.0016497,"INCLINATION":47.0044,"RA_OF_ASC_NODE":270.9856,"ARG_OF_PERICENTER":307.1942,"MEAN_ANOMALY":52.7437,"EPHEMERIS_TYPE":0,"CLASSIFICATION_TYPE":"U","NORAD_CAT_ID":40090,"ELEMENT_SET_NO":999,"REV_AT_EPOCH":61836,"BSTAR":0.00017452,"MEAN_MOTION_DOT":6.25e-6,"MEAN_MOTION_DDOT":0},{"OBJECT_NAME":"ORBCOMM FM103","OBJECT_ID":"2014-040F","EPOCH":"2026-03-03T10:04:45.415776","MEAN_MOTION":14.58697162,"ECCENTRICITY":0.0001251,"INCLINATION":47.0039,"RA_OF_ASC_NODE":233.0687,"ARG_OF_PERICENTER":11.3791,"MEAN_ANOMALY":348.7123,"EPHEMERIS_TYPE":0,"CLASSIFICATION_TYPE":"U","NORAD_CAT_ID":40091,"ELEMENT_SET_NO":999,"REV_AT_EPOCH":60194,"BSTAR":0.00022364,"MEAN_MOTION_DOT":8.83e-6,"MEAN_MOTION_DDOT":0},{"OBJECT_NAME":"ORBCOMM FM114","OBJECT_ID":"2015-081A","EPOCH":"2026-03-03T10:27:13.411296","MEAN_MOTION":14.58717746,"ECCENTRICITY":0.0001264,"INCLINATION":47.0043,"RA_OF_ASC_NODE":141.9355,"ARG_OF_PERICENTER":73.7314,"MEAN_ANOMALY":286.3711,"EPHEMERIS_TYPE":0,"CLASSIFICATION_TYPE":"U","NORAD_CAT_ID":41179,"ELEMENT_SET_NO":999,"REV_AT_EPOCH":54231,"BSTAR":0.00019665,"MEAN_MOTION_DOT":7.56e-6,"MEAN_MOTION_DDOT":0},{"OBJECT_NAME":"ORBCOMM FM119","OBJECT_ID":"2015-081B","EPOCH":"2026-03-03T03:51:19.028160","MEAN_MOTION":14.58660169,"ECCENTRICITY":8.75e-5,"INCLINATION":47.0007,"RA_OF_ASC_NODE":52.5931,"ARG_OF_PERICENTER":216.6176,"MEAN_ANOMALY":143.465,"EPHEMERIS_TYPE":0,"CLASSIFICATION_TYPE":"U","NORAD_CAT_ID":41180,"ELEMENT_SET_NO":999,"REV_AT_EPOCH":54352,"BSTAR":0.00022735,"MEAN_MOTION_DOT":8.99e-6,"MEAN_MOTION_DDOT":0}]
